     2              NAVIGATION DATA                         RINEX VERSION / TYPE
CCRINEXN V1.6.0 UX  CDDIS               03-NOV-03 02:52     PGM / RUN BY / DATE 
IGS BROADCAST EPHEMERIS FILE                                COMMENT             
    0.4005D-07  0.1490D-07 -0.1192D-06  0.5960D-07          ION ALPHA           
    0.1516D+06 -0.4915D+05 -0.1311D+06 -0.1966D+06          ION BETA            
    0.279396772385D-08-0.710542735760D-14   147456     1243 DELTA-UTC: A0,A1,T,W
    13                                                      LEAP SECONDS        
                                                            END OF HEADER       
21 03 11  2  8  0  0.0 0.614966265857D-04 0.284217094304D-11 0.000000000000D+00
    0.230000000000D+02 0.160312500000D+02 0.463626470548D-08-0.115186955969D+01
    0.581145286560D-06 0.803350599017D-02 0.745430588722D-05 0.515372143745D+04
    0.288000000000D+05 0.242143869400D-07-0.169908419210D+01-0.108033418655D-06
    0.956105152429D+00 0.233656250000D+03 0.293153956996D+01-0.813176725956D-08
   -0.180007495021D-09 0.100000000000D+01 0.124300000000D+04 0.000000000000D+00
    0.240000000000D+01 0.000000000000D+00-0.121071934700D-07 0.279000000000D+03
    0.280260000000D+05 0.400000000000D+01 0.000000000000D+00 0.000000000000D+00
23 03 11  2  8  0  0.0 0.400487333536D-04 0.102318153950D-11 0.000000000000D+00
    0.129000000000D+03 0.558750000000D+02 0.393302096897D-08 0.162777363005D+01
    0.264868140221D-05 0.164820449427D-01 0.784918665886D-05 0.515386484337D+04
    0.288000000000D+05 0.409781932831D-07-0.640257688091D+00-0.439584255219D-06
    0.984664243561D+00 0.241625000000D+03-0.164429173213D+01-0.781282543554D-08
    0.190007914592D-09 0.100000000000D+01 0.124300000000D+04 0.000000000000D+00
    0.280000000000D+01 0.000000000000D+00-0.279396772385D-08 0.641000000000D+03
    0.271980000000D+05 0.400000000000D+01 0.000000000000D+00 0.000000000000D+00
24 03 11  2  8  0  0.0 0.719819217920D-04 0.295585778076D-11 0.000000000000D+00
    0.190000000000D+02 0.162500000000D+02 0.430910818139D-08-0.135589474351D+01
    0.107288360596D-05 0.971327640582D-02 0.791437923908D-05 0.515378787804D+04
    0.288000000000D+05-0.149011611938D-06-0.170045504874D+01 0.229105353355D-06
    0.972777077418D+00 0.237437500000D+03-0.145753956732D+01-0.799640442750D-08
   -0.254296306235D-09 0.100000000000D+01 0.124300000000D+04 0.000000000000D+00
    0.340000000000D+01 0.000000000000D+00-0.139698386192D-08 0.275000000000D+03
    0.216180000000D+05 0.400000000000D+01 0.000000000000D+00 0.000000000000D+00
25 03 11  2  8  0  0.0 0.545610673726D-04 0.682121026330D-12 0.000000000000D+00
    0.920000000000D+02-0.930312500000D+02 0.512021327743D-08-0.658261883798D+00
   -0.478327274323D-05 0.106628175126D-01 0.714138150215D-05 0.515380028534D+04
    0.288000000000D+05-0.894069671631D-07 0.131187893101D+01 0.987201929092D-07
    0.942538344208D+00 0.235281250000D+03-0.166884350443D+01-0.859678666210D-08
   -0.141077305008D-09 0.000000000000D+00 0.124300000000D+04 0.000000000000D+00
    0.400000000000D+01 0.000000000000D+00-0.745058059692D-08 0.604000000000D+03
    0.216000000000D+05 0.000000000000D+00 0.000000000000D+00 0.000000000000D+00
26 03 11  2  8  0  0.0 0.503592658788D-03-0.545696821064D-11 0.000000000000D+00
    0.910000000000D+02-0.937500000000D+01 0.440196901152D-08 0.392667924469D+00
   -0.337138772011D-06 0.147296445211D-01 0.399909913540D-05 0.515360555267D+04
    0.288000000000D+05 0.633299350739D-07 0.353876735175D+00 0.191852450371D-06
    0.979144166496D+00 0.308937500000D+03 0.533036072806D+00-0.832606072976D-08
   -0.857178564240D-11 0.100000000000D+01 0.124300000000D+04 0.000000000000D+00
    0.240000000000D+01 0.000000000000D+00-0.651925802231D-08 0.910000000000D+02
    0.255780000000D+05 0.400000000000D+01 0.000000000000D+00 0.000000000000D+00
27 03 11  2  8  0  0.0 0.772391445935D-03 0.248974174610D-10 0.000000000000D+00
    0.300000000000D+01-0.928750000000D+02 0.473055417061D-08-0.216314584259D+01
   -0.491552054882D-05 0.175291342894D-01 0.641681253910D-05 0.515361104584D+04
    0.288000000000D+05 0.162050127983D-06 0.133925782908D+01-0.163912773132D-06
    0.947064933124D+00 0.244593750000D+03-0.224746341263D+01-0.794925991698D-08
    0.135719942229D-10 0.100000000000D+01 0.124300000000D+04 0.000000000000D+00
    0.340000000000D+01 0.000000000000D+00-0.419095158577D-08 0.259000000000D+03
    0.216180000000D+05 0.400000000000D+01 0.000000000000D+00 0.000000000000D+00
28 03 11  2  8  0  0.0 0.808387994766D-06 0.238742359215D-11 0.000000000000D+00
    0.147000000000D+03-0.390625000000D+01 0.434910951697D-08 0.267391228944D+01
   -0.206753611565D-06 0.800910661928D-02 0.102296471596D-04 0.515369587898D+04
    0.288000000000D+05-0.372529029846D-08 0.244692903189D+01-0.162050127983D-06
    0.959126408882D+00 0.180437500000D+03-0.242911122511D+01-0.772925012882D-08
    0.222152116147D-09 0.100000000000D+01 0.124300000000D+04 0.000000000000D+00
    0.485000000000D+01 0.000000000000D+00-0.102445483208D-07 0.659000000000D+03
    0.216720000000D+05 0.400000000000D+01 0.000000000000D+00 0.000000000000D+00
29 03 11  2  8  0  0.0 0.149154104292D-03 0.125055521494D-10 0.000000000000D+00
    0.990000000000D+02-0.712500000000D+01 0.438446834394D-08 0.279203727748D+01
   -0.281259417534D-06 0.802092498634D-02 0.388547778130D-05 0.515368406105D+04
    0.288000000000D+05 0.201165676117D-06 0.321931759647D+00-0.121071934700D-06
    0.976125802232D+00 0.307531250000D+03-0.154346974853D+01-0.806426481148D-08
    0.467876640209D-10 0.100000000000D+01 0.124300000000D+04 0.000000000000D+00
    0.240000000000D+01 0.000000000000D+00-0.698491930962D-08 0.355000000000D+03
    0.221580000000D+05 0.400000000000D+01 0.000000000000D+00 0.000000000000D+00
31 03 11  2  8  0  0.0 0.430020969361D-03 0.386535248253D-11 0.000000000000D+00
    0.184000000000D+03 0.373437500000D+02 0.530022070677D-08-0.151538377827D+00
    0.208243727684D-05 0.118592398940D-01 0.616349279881D-05 0.515376193047D+04
    0.288000000000D+05-0.186264514923D-08-0.284385737026D+01 0.173225998878D-06
    0.938329398694D+00 0.249093750000D+03 0.945884067114D+00-0.860678728287D-08
    0.111076058074D-09 0.100000000000D+01 0.124300000000D+04 0.000000000000D+00
    0.240000000000D+01 0.000000000000D+00-0.605359673500D-08 0.184000000000D+03
    0.280260000000D+05 0.400000000000D+01 0.000000000000D+00 0.000000000000D+00
 5 03 11  2  9 59 44.0 0.327918678522D-05 0.147792889038D-11 0.000000000000D+00
    0.238000000000D+03-0.837500000000D+01 0.499735101687D-08-0.132123013452D+01
   -0.480562448502D-06 0.494208466262D-02 0.100601464510D-04 0.515362397766D+04
    0.359840000000D+05 0.130385160446D-06 0.236938627936D+01-0.167638063431D-07
    0.935807583936D+00 0.173562500000D+03 0.781869660581D+00-0.815105380982D-08
    0.775032283206D-10 0.100000000000D+01 0.124300000000D+04 0.000000000000D+00
    0.000000000000D+00 0.000000000000D+00-0.419095158577D-08 0.494000000000D+03
    0.348900000000D+05 0.000000000000D+00 0.000000000000D+00 0.000000000000D+00
14 03 11  2  9 59 44.0-0.192211009562D-04 0.341060513165D-12 0.000000000000D+00
    0.530000000000D+02-0.918750000000D+01 0.440554065131D-08 0.141238532660D+01
   -0.433996319771D-06 0.134856882505D-02 0.420399010181D-05 0.515374562836D+04
    0.359840000000D+05-0.931322574616D-08 0.342485583111D+00-0.100582838059D-06
    0.975237458395D+00 0.306093750000D+03-0.134034617576D+01-0.815676833357D-08
    0.165364030933D-09 0.100000000000D+01 0.124300000000D+04 0.000000000000D+00
    0.200000000000D+01 0.000000000000D+00-0.102445483208D-07 0.530000000000D+02
    0.329880000000D+05 0.400000000000D+01 0.000000000000D+00 0.000000000000D+00
15 03 11  2  9 59 44.0 0.180453993380D-03 0.511590769747D-11 0.000000000000D+00
    0.226000000000D+03 0.168125000000D+02 0.432089426830D-08-0.610159548623D-01
    0.676140189171D-06 0.846457132138D-02 0.757351517677D-05 0.515375689697D+04
    0.359840000000D+05-0.204890966415D-07-0.167408090037D+01-0.111758708954D-06
    0.969460043799D+00 0.237906250000D+03 0.215907276413D+01-0.807997942072D-08
   -0.262868092368D-09 0.000000000000D+00 0.124300000000D+04 0.000000000000D+00
    0.000000000000D+00 0.000000000000D+00-0.232830643654D-08 0.738000000000D+03
    0.315600000000D+05 0.000000000000D+00 0.000000000000D+00 0.000000000000D+00
20 03 11  2  9 59 44.0-0.205627642572D-03 0.147792889038D-11 0.000000000000D+00
    0.520000000000D+02 0.622812500000D+02 0.437946834353D-08-0.234439961370D+01
    0.322610139847D-05 0.198859756347D-02 0.845454633236D-05 0.515378660584D+04
    0.359840000000D+05 0.502914190292D-07-0.707728199903D+00 0.931322574616D-08
    0.964652638980D+00 0.219406250000D+03 0.173262160662D+01-0.801533417416D-08
    0.149649084791D-09 0.100000000000D+01 0.124300000000D+04 0.000000000000D+00
    0.200000000000D+01 0.000000000000D+00-0.698491930962D-08 0.520000000000D+02
    0.309960000000D+05 0.400000000000D+01 0.000000000000D+00 0.000000000000D+00
25 03 11  2  9 59 44.0 0.545638613403D-04 0.682121026330D-12 0.000000000000D+00
    0.118000000000D+03-0.857187500000D+02 0.509164065870D-08 0.389555911504D+00
   -0.446662306786D-05 0.106633703690D-01 0.721029937267D-05 0.515380144882D+04
    0.359840000000D+05-0.130385160446D-06 0.131181754697D+01 0.558793544769D-08
    0.942537077321D+00 0.234125000000D+03-0.166888821121D+01-0.858428614140D-08
   -0.218223375594D-09 0.100000000000D+01 0.124300000000D+04 0.000000000000D+00
    0.000000000000D+00 0.000000000000D+00-0.745058059692D-08 0.118000000000D+03
    0.357900000000D+05 0.000000000000D+00 0.000000000000D+00 0.000000000000D+00
